COSMOS 2433 (720)       
1 32275U 07052A   22010.68957550 -.00000053  00000+0  00000+0 0  9990
2 32275  66.0819   9.9051 0005233 256.8724 292.6700  2.13104142110604
COSMOS 2432 (719)       
1 32276U 07052B   22011.29209050 -.00000052  00000+0  00000+0 0  9993
2 32276  66.0949   9.9834 0011521 316.7985 283.6817  2.13103368110619
COSMOS 2434 (721)       
1 32393U 07065A   22010.61861181  .00000032  00000+0  00000+0 0  9998
2 32393  64.4130 246.8191 0004012  69.8889 314.2085  2.13103116109311
COSMOS 2436 (723)       
1 32395U 07065C   22011.12753433  .00000039  00000+0  00000+0 0  9994
2 32395  64.4216 246.8577 0016491   4.2809 186.2145  2.13102867109254
COSMOS 2456 (730)       
1 36111U 09070A   22011.43849297 -.00000015  00000+0  00000+0 0  9995
2 36111  64.3169 126.4459 0002219 321.8464 139.0163  2.13099080 93991
COSMOS 2457 (733)       
1 36112U 09070B   22011.19820373 -.00000012  00000+0  00000+0 0  9990
2 36112  64.2996 126.3340 0006361 156.8694 245.6976  2.13101305 93990
COSMOS 2461 (735)       
1 36401U 10007B   22010.62618924 -.00000054  00000+0  00000+0 0  9993
2 36401  65.9699   8.7678 0019829 358.8841 359.6125  2.13103678 92320
COSMOS 2460 (732)       
1 36402U 10007C   22011.40526654 -.00000053  00000+0  00000+0 0  9998
2 36402  65.9574   8.6943 0002459 271.2531 271.8466  2.13106402 92345
COSMOS 2464 (736)       
1 37139U 10041C   22011.48324632  .00000046  00000+0  00000+0 0  9995
2 37139  64.0116 245.9431 0029946  12.2143 174.5944  2.13100783 88403
COSMOS 2476 (744)       
1 37867U 11064A   22010.59404844 -.00000002  00000+0  00000+0 0  9997
2 37867  64.6084 127.7690 0020502 231.9121 205.2507  2.13101802 79321
COSMOS 2477 (745)       
1 37868U 11064B   22010.61212765 -.00000002  00000+0  00000+0 0  9990
2 37868  64.6160 127.8317 0018044 232.9994  36.2488  2.13101580 79278
COSMOS 2475 (743)       
1 37869U 11064C   22010.67613892 -.00000003  00000+0  00000+0 0  9994
2 37869  64.6230 127.8362 0021438 253.1867  23.0607  2.13101742 79280
COSMOS 2485 (747)       
1 39155U 13019A   22011.27977714 -.00000009  00000+0  00000+0 0  9995
2 39155  64.7729 128.1394 0021012 227.8744  59.7993  2.13101773 67806
COSMOS 2492 (754)       
1 39620U 14012A   22011.46498057 -.00000053  00000+0  00000+0 0  9994
2 39620  65.8438   8.3965 0014769 315.1259 149.2288  2.13103159 60768
COSMOS 2500 (755)       
1 40001U 14032A   22011.35773950 -.00000053  00000+0  00000+0 0  9997
2 40001  65.7842   8.2721 0007629 221.7406  19.4121  2.13102287 58978
COSMOS 2501 (702K)      
1 40315U 14075A   22011.22570817  .00000040  00000+0  00000+0 0  9990
2 40315  63.7212 246.6807 0016400 208.0664  99.0483  2.13101308 55378
COSMOS 2514 (751)       
1 41330U 16008A   22011.51429471 -.00000054  00000+0  00000+0 0  9993
2 41330  65.5846   7.9980 0011622 224.0778 320.7253  2.13102795 46149
COSMOS 2516 (753)       
1 41554U 16032A   22011.11362536  .00000038  00000+0  00000+0 0  9993
2 41554  63.9472 246.9176 0012480 216.9272 280.1686  2.13106073 43743
COSMOS 2522 (752)       
1 42939U 17055A   22011.54298193  .00000044  00000+0  00000+0 0  9998
2 42939  64.1808 247.2502 0006148 249.7260  76.0648  2.13102057 33500
COSMOS 2527 (756)       
1 43508U 18053A   22010.68090740 -.00000002  00000+0  00000+0 0  9997
2 43508  64.9367 128.1273 0007618 218.4779 198.0683  2.13102490 27782
COSMOS 2529 (757)       
1 43687U 18086A   22010.40391808  .00000028  00000+0  00000+0 0  9997
2 43687  64.3954 247.5636 0008515 276.6286 210.8322  2.13102133 24796
COSMOS 2534 (758)       
1 44299U 19030A   22011.11021376  .00000037  00000+0  00000+0 0  9996
2 44299  64.4670 247.4096 0011801 295.7021 148.2784  2.13101917 20456
COSMOS 2544 (759)       
1 44850U 19088A   22011.35208167 -.00000010  00000+0  00000+0 0  9995
2 44850  64.9217 127.9602 0010877 254.2739   0.7579  2.13102270 16221
COSMOS 2545 (760)       
1 45358U 20018A   22011.44527115 -.00000056  00000+0  00000+0 0  9991
2 45358  64.9207   8.7380 0011498 252.8734 283.3647  2.13102665 14188
COSMOS 2547 (705K)      
1 46805U 20075A   22011.11347380  .00000039  00000+0  00000+0 0  9990
2 46805  64.6895 246.7874 0005876 251.4016 242.2346  2.13102837  9421
